{"type": "FeatureCollection", "features": [ {"type": "Feature", "properties": {"norad_id": 66625, "name": "STARLINK-35929", "group": "last-30-days", "lat": 52.35996076497827, "lon": -114.44167795749901, "alt_km": 439.59884093848996, "timestamp": "2025-12-22T05:49:02.184393+00:00", "meta": {"OBJECT_NAME": "STARLINK-35929", "OBJECT_ID": "2025-271J", "EPOCH": "2025-12-21T20:00:01.999008", "MEAN_MOTION": 15.3958164, "ECCENTRICITY": 8.8e-05, "INCLINATION": 53.1598, "RA_OF_ASC_NODE": 143.9268, "ARG_OF_PERICENTER": 73.1589, "MEAN_ANOMALY": 276.6902, "EPHEMERIS_TYPE": 0, "CLASSIFICATION_TYPE": "U", "NORAD_CAT_ID": 66625, "ELEMENT_SET_NO": 999, "REV_AT_EPOCH": 570, "BSTAR": 0.001701, "MEAN_MOTION_DOT": 0.00068163, "MEAN_MOTION_DDOT": 0}, "tle": {"line1": "1 66625U 25271J   25355.83335647  .00068163  00000+0  17010-2 0  9995", "line2": "2 66625  53.1598 143.9268 0000880  73.1589 276.6902 15.39581640  5706"}}, "geometry": {"type": "Point", "coordinates": [-114.44167795749901, 52.35996076497827]}}, {"type": "Feature", "properties": {"norad_id": 66626, "name": "STARLINK-35902", "group": "last-30-days", "lat": 16.65542006210218, "lon": 155.10958489414259, "alt_km": 444.95298581195766, "timestamp": "2025-12-22T05:49:02.184403+00:00", "meta": {"OBJECT_NAME": "STARLINK-35902", "OBJECT_ID": "2025-271K", "EPOCH": "2025-12-21T17:15:48.363264", "MEAN_MOTION": 15.39660594, "ECCENTRICITY": 0.0001589, "INCLINATION": 53.1614, "RA_OF_ASC_NODE": 144.6147, "ARG_OF_PERICENTER": 81.3507, "MEAN_ANOMALY": 278.7677, "EPHEMERIS_TYPE": 0, "CLASSIFICATION_TYPE": "U", "NORAD_CAT_ID": 66626, "ELEMENT_SET_NO": 999, "REV_AT_EPOCH": 559, "BSTAR": 0.0011663, "MEAN_MOTION_DOT": 0.000466, "MEAN_MOTION_DDOT": 0}, "tle": {"line1": "1 66626U 25271K   25355.71930976  .00046600  00000+0  11663-2 0  9999", "line2": "2 66626  53.1614 144.6147 0001589  81.3507 278.7677 15.39660594  5593"}}, "geometry": {"type": "Point", "coordinates": [155.10958489414259, 16.65542006210218]}}, {"type": "Feature", "properties": {"norad_id": 66627, "name": "STARLINK-35904", "group": "last-30-days", "lat": 49.71217010722994, "lon": -155.76766928211612, "alt_km": 439.9026781111261, "timestamp": "2025-12-22T05:49:02.184413+00:00", "meta": {"OBJECT_NAME": "STARLINK-35904", "OBJECT_ID": "2025-271L", "EPOCH": "2025-12-21T20:00:01.999008", "MEAN_MOTION": 15.39575875, "ECCENTRICITY": 9.05e-05, "INCLINATION": 53.1594, "RA_OF_ASC_NODE": 143.9781, "ARG_OF_PERICENTER": 72.395, "MEAN_ANOMALY": 251.7109, "EPHEMERIS_TYPE": 0, "CLASSIFICATION_TYPE": "U", "NORAD_CAT_ID": 66627, "ELEMENT_SET_NO": 999, "REV_AT_EPOCH": 554, "BSTAR": 0.0017738, "MEAN_MOTION_DOT": 0.0007111, "MEAN_MOTION_DDOT": 0}, "tle": {"line1": "1 66627U 25271L   25355.83335647  .00071110  00000+0  17738-2 0  9990", "line2": "2 66627  53.1594 143.9781 0000905  72.3950 251.7109 15.39575875  5543"}}, "geometry": {"type": "Point", "coordinates": [-155.76766928211612, 49.71217010722994]}}, {"type": "Feature", "properties": {"norad_id": 66628, "name": "STARLINK-35862", "group": "last-30-days", "lat": -9.253113058922224, "lon": -31.175309158661545, "alt_km": 428.0558139541481, "timestamp": "2025-12-22T05:49:02.184423+00:00", "meta": {"OBJECT_NAME": "STARLINK-35862", "OBJECT_ID": "2025-271M", "EPOCH": "2025-12-21T15:01:56.271072", "MEAN_MOTION": 15.46332128, "ECCENTRICITY": 0.0002417, "INCLINATION": 53.1604, "RA_OF_ASC_NODE": 144.7425, "ARG_OF_PERICENTER": 236.1286, "MEAN_ANOMALY": 123.9492, "EPHEMERIS_TYPE": 0, "CLASSIFICATION_TYPE": "U", "NORAD_CAT_ID": 66628, "ELEMENT_SET_NO": 999, "REV_AT_EPOCH": 558, "BSTAR": 0.0017101, "MEAN_MOTION_DOT": 0.00086273, "MEAN_MOTION_DDOT": 0}, "tle": {"line1": "1 66628U 25271M   25355.62634573  .00086273  00000+0  17101-2 0  9998", "line2": "2 66628  53.1604 144.7425 0002417 236.1286 123.9492 15.46332128  5581"}}, "geometry": {"type": "Point", "coordinates": [-31.175309158661545, -9.253113058922224]}}, {"type": "Feature", "properties": {"norad_id": 66629, "name": "STARLINK-35956", "group": "last-30-days", "lat": -35.00577506635133, "lon": -6.5870768075459125, "alt_km": 422.4853170802262, "timestamp": "2025-12-22T05:49:02.184433+00:00", "meta": {"OBJECT_NAME": "STARLINK-35956", "OBJECT_ID": "2025-271N", "EPOCH": "2025-12-18T16:00:00.999936", "MEAN_MOTION": 15.49463337, "ECCENTRICITY": 5.424e-05, "INCLINATION": 53.1591, "RA_OF_ASC_NODE": 158.846, "ARG_OF_PERICENTER": 63.7637, "MEAN_ANOMALY": 4.4961, "EPHEMERIS_TYPE": 0, "CLASSIFICATION_TYPE": "U", "NORAD_CAT_ID": 66629, "ELEMENT_SET_NO": 999, "REV_AT_EPOCH": 519, "BSTAR": 0.0002238515, "MEAN_MOTION_DOT": 0.00012088, "MEAN_MOTION_DDOT": 0}, "tle": {"line1": "1 66629U 25271N   25352.66667824  .00012088  00000+0  22385-3 0  9999", "line2": "2 66629  53.1591 158.8460 0000542  63.7637   4.4961 15.49463337  5194"}}, "geometry": {"type": "Point", "coordinates": [-6.5870768075459125, -35.00577506635133]}}, {"type": "Feature", "properties": {"norad_id": 66630, "name": "STARLINK-35949", "group": "last-30-days", "lat": -12.049774299388108, "lon": -28.990453175703035, "alt_km": 433.7166677772748, "timestamp": "2025-12-22T05:49:02.184447+00:00", "meta": {"OBJECT_NAME": "STARLINK-35949", "OBJECT_ID": "2025-271P", "EPOCH": "2025-12-19T21:07:53.060736", "MEAN_MOTION": 15.46903837, "ECCENTRICITY": 0.0003221, "INCLINATION": 53.1593, "RA_OF_ASC_NODE": 153.0444, "ARG_OF_PERICENTER": 47.5604, "MEAN_ANOMALY": 312.5676, "EPHEMERIS_TYPE": 0, "CLASSIFICATION_TYPE": "U", "NORAD_CAT_ID": 66630, "ELEMENT_SET_NO": 999, "REV_AT_EPOCH": 531, "BSTAR": -0.005658, "MEAN_MOTION_DOT": -0.002797, "MEAN_MOTION_DDOT": 0}, "tle": {"line1": "1 66630U 25271P   25353.88047524 -.00279700  00000+0 -56580-2 0  9996", "line2": "2 66630  53.1593 153.0444 0003221  47.5604 312.5676 15.46903837  5319"}}, "geometry": {"type": "Point", "coordinates": [-28.990453175703035, -12.049774299388108]}}, {"type": "Feature", "properties": {"norad_id": 66631, "name": "STARLINK-35965", "group": "last-30-days", "lat": -9.354508932547567, "lon": -31.09349091916107, "alt_km": 432.310735252212, "timestamp": "2025-12-22T05:49:02.184461+00:00", "meta": {"OBJECT_NAME": "STARLINK-35965", "OBJECT_ID": "2025-271Q", "EPOCH": "2025-12-21T20:00:01.999008", "MEAN_MOTION": 15.45497837, "ECCENTRICITY": 0.0001292, "INCLINATION": 53.1607, "RA_OF_ASC_NODE": 143.7575, "ARG_OF_PERICENTER": 61.2739, "MEAN_ANOMALY": 13.2377, "EPHEMERIS_TYPE": 0, "CLASSIFICATION_TYPE": "U", "NORAD_CAT_ID": 66631, "ELEMENT_SET_NO": 999, "REV_AT_EPOCH": 570, "BSTAR": 0.0017074, "MEAN_MOTION_DOT": 0.00083665, "MEAN_MOTION_DDOT": 0}, "tle": {"line1": "1 66631U 25271Q   25355.83335647  .00083665  00000+0  17074-2 0  9996", "line2": "2 66631  53.1607 143.7575 0001292  61.2739  13.2377 15.45497837  5708"}}, "geometry": {"type": "Point", "coordinates": [-31.09349091916107, -9.354508932547567]}}, {"type": "Feature", "properties": {"norad_id": 66632, "name": "STARLINK-35973", "group": "last-30-days", "lat": -23.973755904804648, "lon": 122.777720999956, "alt_km": 450.7649371028647, "timestamp": "2025-12-22T05:49:02.184472+00:00", "meta": {"OBJECT_NAME": "STARLINK-35973", "OBJECT_ID": "2025-271R", "EPOCH": "2025-12-21T17:29:10.754880", "MEAN_MOTION": 15.39658441, "ECCENTRICITY": 8.51e-05, "INCLINATION": 53.1601, "RA_OF_ASC_NODE": 144.6738, "ARG_OF_PERICENTER": 98.3607, "MEAN_ANOMALY": 261.7494, "EPHEMERIS_TYPE": 0, "CLASSIFICATION_TYPE": "U", "NORAD_CAT_ID": 66632, "ELEMENT_SET_NO": 999, "REV_AT_EPOCH": 555, "BSTAR": 0.0011465, "MEAN_MOTION_DOT": 0.00045794, "MEAN_MOTION_DDOT": 0}, "tle": {"line1": "1 66632U 25271R   25355.72859670  .00045794  00000+0  11465-2 0  9991", "line2": "2 66632  53.1601 144.6738 0000851  98.3607 261.7494 15.39658441  5555"}}, "geometry": {"type": "Point", "coordinates": [122.777720999956, -23.973755904804648]}}, {"type": "Feature", "properties": {"norad_id": 66633, "name": "STARLINK-35948", "group": "last-30-days", "lat": -22.624429453593482, "lon": 124.04134087879375, "alt_km": 450.77805552953487, "timestamp": "2025-12-22T05:49:02.184482+00:00", "meta": {"OBJECT_NAME": "STARLINK-35948", "OBJECT_ID": "2025-271S", "EPOCH": "2025-12-21T17:28:42.065760", "MEAN_MOTION": 15.39633829, "ECCENTRICITY": 8.14e-05, "INCLINATION": 53.1611, "RA_OF_ASC_NODE": 144.6709, "ARG_OF_PERICENTER": 103.4907, "MEAN_ANOMALY": 256.6189, "EPHEMERIS_TYPE": 0, "CLASSIFICATION_TYPE": "U", "NORAD_CAT_ID": 66633, "ELEMENT_SET_NO": 999, "REV_AT_EPOCH": 559, "BSTAR": 0.00082683, "MEAN_MOTION_DOT": 0.0003283, "MEAN_MOTION_DDOT": 0}, "tle": {"line1": "1 66633U 25271S   25355.72826465  .00032830  00000+0  82683-3 0  9996", "line2": "2 66633  53.1611 144.6709 0000814 103.4907 256.6189 15.39633829  5596"}}, "geometry": {"type": "Point", "coordinates": [124.04134087879375, -22.624429453593482]}}, {"type": "Feature", "properties": {"norad_id": 66634, "name": "STARLINK-35967", "group": "last-30-days", "lat": -2.3850754191713106, "lon": 140.4052632613856, "alt_km": 448.1329864843783, "timestamp": "2025-12-22T05:49:02.184492+00:00", "meta": {"OBJECT_NAME": "STARLINK-35967", "OBJECT_ID": "2025-271T", "EPOCH": "2025-12-21T18:55:29.400672", "MEAN_MOTION": 15.39646521, "ECCENTRICITY": 7.94e-05, "INCLINATION": 53.1625, "RA_OF_ASC_NODE": 144.3337, "ARG_OF_PERICENTER": 70.5371, "MEAN_ANOMALY": 289.572, "EPHEMERIS_TYPE": 0, "CLASSIFICATION_TYPE": "U", "NORAD_CAT_ID": 66634, "ELEMENT_SET_NO": 999, "REV_AT_EPOCH": 556, "BSTAR": 0.00082178, "MEAN_MOTION_DOT": 0.0003264, "MEAN_MOTION_DDOT": 0}, "tle": {"line1": "1 66634U 25271T   25355.78853473  .00032640  00000+0  82178-3 0  9990", "line2": "2 66634  53.1625 144.3337 0000794  70.5371 289.5720 15.39646521  5568"}}, "geometry": {"type": "Point", "coordinates": [140.4052632613856, -2.3850754191713106]}}]}